COSMOS 1933             
1 18958U 88020A   22274.50660944  .00002779  00000+0  19412-3 0  9994
2 18958  82.5320  37.7914 0011309 178.0805 182.0467 15.04928084860752
SL-3 R/B                
1 19046U 88032B   22274.51481256  .00002367  00000+0  17319-3 0  9991
2 19046  97.4005 268.8326 0034389 235.2816 124.5170 15.04056348862558
SL-16 R/B               
1 19120U 88039B   22274.52602275 -.00000070  00000+0 -10377-4 0  9997
2 19120  71.0154 201.8030 0019702 106.8604 253.4684 14.19258312780273
COSMOS 1953             
1 19210U 88050A   22274.54141170  .00003635  00000+0  23572-3 0  9992
2 19210  82.5177 317.5609 0012218 141.4936 218.7167 15.07758789847545
SL-8 R/B                
1 19257U 88053B   22274.45262156  .00000364  00000+0  12969-3 0  9998
2 19257  74.0460 263.6300 0019715  32.1763  81.6343 14.37638108796134
COSMOS 1975             
1 19573U 88093A   22274.46222497  .00003305  00000+0  22078-3 0  9998
2 19573  82.5142 273.7047 0013042 180.2739 179.8484 15.06623575829245
SL-14 R/B               
1 19574U 88093B   22274.58854067  .00000393  00000+0  44680-4 0  9994
2 19574  82.5312 138.1047 0020442 221.7211 200.3160 14.83557198814827
SL-16 R/B               
1 19650U 88102B   22274.43943096 -.00000085  00000+0 -19062-4 0  9991
2 19650  70.9981 271.9534 0012224 127.5792 232.6443 14.15843446749208
INTERCOSMOS 24          
1 20261U 89080A   22274.51199605  .00001057  00000+0  31678-3 0  9999
2 20261  82.6075 199.0664 1200728 318.3636  33.1797 12.56519661508977
SL-14 R/B               
1 20262U 89080C   22274.47448262  .00000187  00000+0  50146-4 0  9996
2 20262  82.5887 258.3468 1236393 170.7262 191.9167 12.49100481503350
DELTA 2 R/B(1)          
1 20303U 89085B   22273.89540570  .00028120  00000+0  66336-3 0  9991
2 20303  35.6361 136.3211 0073225  81.5190 279.3832 15.38134005796145
DELTA 1 R/B             
1 20323U 89089B   22274.52705399  .00000276  00000+0  79831-4 0  9997
2 20323  97.0725 299.1406 0072918 119.8657 240.9812 14.48567719713893
ARIANE 40 R/B           
1 20443U 90005H   22274.44135200  .00000248  00000+0  95969-4 0  9998
2 20443  98.4737 340.8831 0010532  15.6386 344.5125 14.38275402712279
DELTA 2 R/B(1)          
1 20453U 90008B   22274.48645242  .00006477  00000+0  33610-3 0  9992
2 20453  35.6240 353.4577 0261657 102.4331 260.5794 14.90670728735733
COSMOS 2058             
1 20465U 90010A   22274.47993330  .00001916  00000+0  15523-3 0  9997
2 20465  82.4920 188.4076 0013446 261.2497  98.7203 14.99138447753517
SL-14 R/B               
1 20466U 90010B   22274.32020396  .00000431  00000+0  51594-4 0  9995
2 20466  82.5067   4.4459 0021903 110.0538 250.3037 14.81599054742488
SL-14 R/B               
1 20511U 90018B   22274.53320887  .00000344  00000+0  42172-4 0  9990
2 20511  82.5220 314.3731 0015888 254.2259 218.0943 14.80246424736784
HST                     
1 20580U 90037B   22274.47110500  .00003474  00000+0  19236-3 0  9990
2 20580  28.4690 186.1272 0002702  97.6288  65.7394 15.10946437582261
SL-16 R/B               
1 20625U 90046B   22274.56552984  .00000336  00000+0  19914-3 0  9993
2 20625  71.0000  53.1829 0012743  45.8603 314.3565 14.14704922670864
COSMOS 2084             
1 20663U 90055A   22274.39869755  .00002740  00000+0  24107-3 0  9994
2 20663  62.7919 255.3504 0125981  60.6318 300.7287 14.93165435748116
SL-6 R/B(2)             
1 20666U 90055D   22274.43449762  .00002568  00000+0  22151-3 0  9999
2 20666  62.7844 169.4430 0132371  82.8185 278.7937 14.93518371750084
SL-8 R/B                
1 20775U 90078B   22274.38765157  .00007088  00000+0  32491-3 0  9998
2 20775  82.9219 254.6725 0548198 115.5925 250.2969 14.41037209625779
SL-8 R/B                
1 21088U 91006B   22274.54433530  .00000106  00000+0  91950-4 0  9993
2 21088  82.9465  23.5665 0021478 312.5187  58.2719 13.77215016591292
OKEAN-3                 
1 21397U 91039A   22274.53360593  .00001855  00000+0  17169-3 0  9990
2 21397  82.5179 101.5807 0016084 248.5721 111.3784 14.93924031677018
COSMOS 2151             
1 21422U 91042A   22274.30272360  .00001599  00000+0  15187-3 0  9995
2 21422  82.5029 206.8774 0013070 325.9199  34.1180 14.92848566675471
SL-14 R/B               
1 21423U 91042B   22274.53130622  .00000334  00000+0  41012-4 0  9998
2 21423  82.4930 315.4150 0018581  43.7940 316.4743 14.79991298667319
ERS-1                   
1 21574U 91050A   22274.53531391  .00000230  00000+0  90694-4 0  9997
2 21574  98.7101 244.7182 0032338 325.4011  34.5070 14.37938361635244
ARIANE 40 R/B           
1 21610U 91050F   22274.42441798  .00000288  00000+0  10287-3 0  9999
2 21610  98.3716 341.8263 0002024 262.7588  97.3371 14.41111597638099
INTERCOSMOS 25          
1 21819U 91086A   22274.48554894  .00001374  00000+0  28079-3 0  9992
2 21819  82.6070 345.0945 1511645 289.6591  54.7815 12.06007206345016
SL-8 R/B                
1 21876U 92008B   22274.57836215  .00000008  00000+0 -80759-5 0  9999
2 21876  82.9238 120.9573 0035668  41.0794  16.6031 13.75715640536839
SL-8 R/B                
1 21938U 92020B   22274.52909012  .00000093  00000+0  81231-4 0  9991
2 21938  82.9350   5.8341 0028880 198.1794 180.9161 13.75314396528595
COSMOS 2219             
1 22219U 92076A   22274.51989873 -.00000105  00000+0 -30448-4 0  9997
2 22219  71.0598 121.1179 0020284 313.2759  46.6670 14.13712606540960
SL-16 R/B               
1 22220U 92076B   22274.56666907 -.00000129  00000+0 -40693-4 0  9993
2 22220  71.0004 311.4726 0014142 217.1918 253.2026 14.16510144544074
COSMOS 2221             
1 22236U 92080A   22274.40554826  .00001609  00000+0  16943-3 0  9996
2 22236  82.5098  33.4717 0017821  68.2231 292.0881 14.88664316593593
SL-16 R/B               
1 22285U 92093B   22274.55436681 -.00000074  00000+0 -13722-4 0  9998
2 22285  71.0192 118.3946 0002587  39.1183 321.0126 14.15098046535578
COSMOS 2228             
1 22286U 92094A   22274.29597039  .00001539  00000+0  16076-3 0  9995
2 22286  82.5229 350.8115 0020787 179.5406 180.5835 14.88929762588770
SL-16 R/B               
1 22566U 93016B   22274.55974430  .00000267  00000+0  16231-3 0  9994
2 22566  71.0087 330.6482 0008281  69.6499 290.5512 14.15009925524601
COSMOS 2242             
1 22626U 93024A   22273.55420021  .00001730  00000+0  18194-3 0  9997
2 22626  82.5250  19.9942 0018575 182.2990 177.8146 14.88749909593047
SL-16 R/B               
1 22803U 93059B   22274.31247054  .00000185  00000+0  11619-3 0  9998
2 22803  70.9893 137.7062 0018686 317.6136  42.3543 14.16875748501698
ARIANE 40 R/B           
1 22830U 93061H   22274.40776558  .00000169  00000+0  80302-4 0  9995
2 22830  98.6532 336.9310 0011400  33.7057 326.4849 14.31589119514420
COSMOS 2278             
1 23087U 94023A   22274.45120543 -.00000213  00000+0 -87678-4 0  9996
2 23087  71.0523 280.1906 0007463 162.6275 197.5104 14.13885096467352
SL-16 R/B               
1 23088U 94023B   22274.44930209  .00000180  00000+0  11834-3 0  9995
2 23088  71.0001 186.3754 0002309   5.5561 354.5587 14.14718678468543
SL-16 R/B               
1 23343U 94074B   22274.13443951  .00000383  00000+0  61332-4 0  9998
2 23343  97.8814 324.7289 0006364 346.9411  67.1681 14.77097193501762
SL-16 R/B               
1 23405U 94077B   22274.56354799 -.00000137  00000+0 -45956-4 0  9991
2 23405  70.9813 112.3730 0005033 271.9868  88.0678 14.15269799438637
ERS-2                   
1 23560U 95021A   22274.50830327  .00008889  00000+0  32944-3 0  9995
2 23560  98.4972 194.5987 0003142 161.2048 198.9304 15.27921760469500
ARIANE 40+ R/B          
1 23561U 95021B   22274.42855869  .00000253  00000+0  98119-4 0  9999
2 23561  98.6122 332.1015 0005835 294.5629  84.3089 14.38195234438726
SL-16 R/B               
1 23705U 95058B   22274.50568196 -.00000019  00000+0  14643-4 0  9993
2 23705  71.0215 294.7608 0014499 238.9498 121.0202 14.15186481390257
SL-16 R/B               
1 24298U 96051B   22274.54531694  .00000070  00000+0  64384-4 0  9995
2 24298  70.8218 306.9380 0018116 200.8706 159.1677 14.12436938344415
ORBVIEW 2 (SEASTAR)     
1 24883U 97037A   22274.58201706  .00000318  00000+0  13057-3 0  9997
2 24883  98.6936  38.3643 0002940 140.3001 219.8398 14.33788303328518
SL-16 R/B               
1 25400U 98043G   22274.55314633  .00000075  00000+0  50252-4 0  9991
2 25400  98.6774 209.5351 0010964  63.2129 297.0171 14.25529809260136
SL-16 R/B               
1 25407U 98045B   22274.48786018 -.00000044  00000+0  20359-5 0  9995
2 25407  71.0100 300.4968 0006250 155.5854 204.5566 14.15868964249415
ISS (ZARYA)             
1 25544U 98067A   22274.70624079 -.00189013  00000+0 -34343-2 0  9994
2 25544  51.6406 168.8484 0003279 236.2875 219.6200 15.49581705361709
CZ-4B R/B               
1 25732U 99025C   22274.36661218  .00000052  00000+0  47057-4 0  9997
2 25732  98.8441 315.3382 0037034 346.4200  24.3461 14.17745195210261
OKEAN-O                 
1 25860U 99039A   22274.54583705  .00000526  00000+0  82092-4 0  9992
2 25860  98.1290 315.2725 0001851  85.5679 274.5742 14.77028433248916
SL-16 R/B               
1 25861U 99039B   22274.56787853  .00000500  00000+0  75124-4 0  9995
2 25861  98.1725 303.2925 0015406 356.7288   3.3819 14.78903060251184
DELTA 2 R/B             
1 25876U 99041E   22274.36691044  .00001156  00000+0  23367-3 0  9997
2 25876  51.7666 249.0427 0528555 263.0431  91.0124 14.05275550186116
HELIOS 1B               
1 25977U 99064A   22274.54892272  .00000632  00000+0  85173-4 0  9992
2 25977  98.3166 113.0318 0001823 127.4179 232.7199 14.82874511499003
TERRA                   
1 25994U 99068A   22274.51008713  .00000419  00000+0  10273-3 0  9992
2 25994  98.1278 343.9503 0001042  92.1140  32.9016 14.57164193211946
SL-16 R/B               
1 26070U 00006B   22274.53148299  .00000212  00000+0  13295-3 0  9996
2 26070  71.0019 216.2886 0018704 289.5675  70.3428 14.15498330170921
